{
  "norad_id": 49962,
  "name": "SHIJIAN-6 05B (SJ-6 05B)",
  "history": [
    {
      "epoch": "2026-03-28T16:33:47.267424",
      "apogee_km": 532.4091240673761,
      "perigee_km": 530.5642545423316,
      "latitude_deg": -56.672299661267864,
      "longitude_deg": -37.547480640001595,
      "semi_major_axis_km": 6909.6236893048535,
      "eccentricity": 0.0001335,
      "inclination_deg": 97.3741,
      "raan_deg": 71.0848,
      "arg_perigee_deg": 38.0841,
      "mean_anomaly_deg": 322.0484,
      "mean_motion_rev_day": 15.11545305
    }
  ]
}